[{"OBJECT_NAME":"TIANMU-1 22","OBJECT_ID":"2023-208D","EPOCH":"2026-03-09T22:39:05.738688","MEAN_MOTION":15.29457749,"ECCENTRICITY":0.00031332,"INCLINATION":97.4379,"RA_OF_ASC_NODE":184.9419,"ARG_OF_PERICENTER":351.9312,"MEAN_ANOMALY":8.1877,"EPHEMERIS_TYPE":0,"CLASSIFICATION_TYPE":"U","NORAD_CAT_ID":58663,"ELEMENT_SET_NO":999,"REV_AT_EPOCH":12215,"BSTAR":0.00038239675,"MEAN_MOTION_DOT":0.00010851,"MEAN_MOTION_DDOT":0},{"OBJECT_NAME":"STARLINK-31853","OBJECT_ID":"2024-106M","EPOCH":"2026-03-09T02:35:20.600448","MEAN_MOTION":15.27569782,"ECCENTRICITY":4.231e-5,"INCLINATION":43.0016,"RA_OF_ASC_NODE":335.8243,"ARG_OF_PERICENTER":271.3812,"MEAN_ANOMALY":88.6991,"EPHEMERIS_TYPE":0,"CLASSIFICATION_TYPE":"U","NORAD_CAT_ID":59933,"ELEMENT_SET_NO":999,"REV_AT_EPOCH":10043,"BSTAR":-0.00010545764,"MEAN_MOTION_DOT":-3.161e-5,"MEAN_MOTION_DDOT":0}]
